{"type": "FeatureCollection", "features": [ {"type": "Feature", "properties": {"norad_id": 28659, "name": "DIRECTV 8", "group": "intelsat", "lat": -0.0035840411311732303, "lon": -177.36853091449905, "alt_km": 35783.62792796137, "timestamp": "2025-12-09T14:52:25.833495+00:00", "meta": {"OBJECT_NAME": "DIRECTV 8", "OBJECT_ID": "2005-019A", "EPOCH": "2025-12-09T07:22:39.900864", "MEAN_MOTION": 1.0027187, "ECCENTRICITY": 0.0003191, "INCLINATION": 0.0172, "RA_OF_ASC_NODE": 5.4374, "ARG_OF_PERICENTER": 256.9203, "MEAN_ANOMALY": 167.5638, "EPHEMERIS_TYPE": 0, "CLASSIFICATION_TYPE": "U", "NORAD_CAT_ID": 28659, "ELEMENT_SET_NO": 999, "REV_AT_EPOCH": 7516, "BSTAR": 0, "MEAN_MOTION_DOT": 3e-08, "MEAN_MOTION_DDOT": 0}, "tle": {"line1": "1 28659U 05019A   25343.30740626  .00000003  00000+0  00000+0 0  9991", "line2": "2 28659   0.0172   5.4374 0003191 256.9203 167.5638  1.00271870 75167"}}, "geometry": {"type": "Point", "coordinates": [-177.36853091449905, -0.0035840411311732303]}}, {"type": "Feature", "properties": {"norad_id": 28702, "name": "GALAXY 28 (G-28)", "group": "intelsat", "lat": 2.083912553458849, "lon": -146.95649825667394, "alt_km": 35778.345922205364, "timestamp": "2025-12-09T14:52:25.833507+00:00", "meta": {"OBJECT_NAME": "GALAXY 28 (G-28)", "OBJECT_ID": "2005-022A", "EPOCH": "2025-12-09T07:07:50.450016", "MEAN_MOTION": 1.00271154, "ECCENTRICITY": 0.00026821, "INCLINATION": 2.8098, "RA_OF_ASC_NODE": 81.3221, "ARG_OF_PERICENTER": 179.2601, "MEAN_ANOMALY": 195.9842, "EPHEMERIS_TYPE": 0, "CLASSIFICATION_TYPE": "U", "NORAD_CAT_ID": 28702, "ELEMENT_SET_NO": 999, "REV_AT_EPOCH": 5007, "BSTAR": 0, "MEAN_MOTION_DOT": -1.85e-06, "MEAN_MOTION_DDOT": 0}, "tle": {"line1": "1 28702U 05022A   25343.29711169 -.00000185  00000+0  00000+0 0  9994", "line2": "2 28702   2.8098  81.3221 0002682 179.2601 195.9842  1.00271154 50070"}}, "geometry": {"type": "Point", "coordinates": [-146.95649825667394, 2.083912553458849]}}, {"type": "Feature", "properties": {"norad_id": 29236, "name": "GALAXY 16 (G-16)", "group": "intelsat", "lat": -0.0018137286609529275, "lon": -157.32393403064137, "alt_km": 35778.15019419301, "timestamp": "2025-12-09T14:52:25.833519+00:00", "meta": {"OBJECT_NAME": "GALAXY 16 (G-16)", "OBJECT_ID": "2006-023A", "EPOCH": "2025-12-09T07:01:22.716192", "MEAN_MOTION": 1.00272214, "ECCENTRICITY": 0.00028377, "INCLINATION": 0.013, "RA_OF_ASC_NODE": 102.09, "ARG_OF_PERICENTER": 149.8956, "MEAN_ANOMALY": 192.6326, "EPHEMERIS_TYPE": 0, "CLASSIFICATION_TYPE": "U", "NORAD_CAT_ID": 29236, "ELEMENT_SET_NO": 999, "REV_AT_EPOCH": 7106, "BSTAR": 0, "MEAN_MOTION_DOT": -1.25e-06, "MEAN_MOTION_DDOT": 0}, "tle": {"line1": "1 29236U 06023A   25343.29262403 -.00000125  00000+0  00000+0 0  9995", "line2": "2 29236   0.0130 102.0900 0002837 149.8956 192.6326  1.00272214 71064"}}, "geometry": {"type": "Point", "coordinates": [-157.32393403064137, -0.0018137286609529275]}}, {"type": "Feature", "properties": {"norad_id": 29494, "name": "DIRECTV 9S", "group": "intelsat", "lat": 1.706376704558682, "lon": -159.51921714882127, "alt_km": 35779.62230995432, "timestamp": "2025-12-09T14:52:25.833531+00:00", "meta": {"OBJECT_NAME": "DIRECTV 9S", "OBJECT_ID": "2006-043A", "EPOCH": "2025-12-09T07:00:23.782752", "MEAN_MOTION": 1.00270693, "ECCENTRICITY": 0.00031693, "INCLINATION": 1.9314, "RA_OF_ASC_NODE": 83.2426, "ARG_OF_PERICENTER": 178.024, "MEAN_ANOMALY": 180.9027, "EPHEMERIS_TYPE": 0, "CLASSIFICATION_TYPE": "U", "NORAD_CAT_ID": 29494, "ELEMENT_SET_NO": 999, "REV_AT_EPOCH": 4947, "BSTAR": 0, "MEAN_MOTION_DOT": -1.11e-06, "MEAN_MOTION_DDOT": 0}, "tle": {"line1": "1 29494U 06043A   25343.29194193 -.00000111  00000+0  00000+0 0  9998", "line2": "2 29494   1.9314  83.2426 0003169 178.0240 180.9027  1.00270693 49473"}}, "geometry": {"type": "Point", "coordinates": [-159.51921714882127, 1.706376704558682]}}, {"type": "Feature", "properties": {"norad_id": 31307, "name": "GALAXY 17 (G-17)", "group": "intelsat", "lat": 1.7655480492589377, "lon": -143.28326854766422, "alt_km": 35762.96110054788, "timestamp": "2025-12-09T14:52:25.833543+00:00", "meta": {"OBJECT_NAME": "GALAXY 17 (G-17)", "OBJECT_ID": "2007-016B", "EPOCH": "2025-12-09T07:09:50.027616", "MEAN_MOTION": 1.0027259, "ECCENTRICITY": 0.00060721, "INCLINATION": 2.4914, "RA_OF_ASC_NODE": 82.3215, "ARG_OF_PERICENTER": 162.245, "MEAN_ANOMALY": 216.1887, "EPHEMERIS_TYPE": 0, "CLASSIFICATION_TYPE": "U", "NORAD_CAT_ID": 31307, "ELEMENT_SET_NO": 999, "REV_AT_EPOCH": 6790, "BSTAR": 0, "MEAN_MOTION_DOT": -2.05e-06, "MEAN_MOTION_DDOT": 0}, "tle": {"line1": "1 31307U 07016B   25343.29849569 -.00000205  00000+0  00000+0 0  9993", "line2": "2 31307   2.4914  82.3215 0006072 162.2450 216.1887  1.00272590 67903"}}, "geometry": {"type": "Point", "coordinates": [-143.28326854766422, 1.7655480492589377]}}, {"type": "Feature", "properties": {"norad_id": 31862, "name": "DIRECTV 10", "group": "intelsat", "lat": 0.00216495421298939, "lon": -161.06886215838915, "alt_km": 35784.33891888831, "timestamp": "2025-12-09T14:52:25.833555+00:00", "meta": {"OBJECT_NAME": "DIRECTV 10", "OBJECT_ID": "2007-032A", "EPOCH": "2025-12-08T14:49:37.716960", "MEAN_MOTION": 1.00272413, "ECCENTRICITY": 4.123e-05, "INCLINATION": 0.0164, "RA_OF_ASC_NODE": 163.1982, "ARG_OF_PERICENTER": 60.4028, "MEAN_ANOMALY": 333.6449, "EPHEMERIS_TYPE": 0, "CLASSIFICATION_TYPE": "U", "NORAD_CAT_ID": 31862, "ELEMENT_SET_NO": 999, "REV_AT_EPOCH": 4368, "BSTAR": 0, "MEAN_MOTION_DOT": -1.01e-06, "MEAN_MOTION_DDOT": 0}, "tle": {"line1": "1 31862U 07032A   25342.61779765 -.00000101  00000+0  00000+0 0  9997", "line2": "2 31862   0.0164 163.1982 0000412  60.4028 333.6449  1.00272413 43683"}}, "geometry": {"type": "Point", "coordinates": [-161.06886215838915, 0.00216495421298939]}}, {"type": "Feature", "properties": {"norad_id": 32253, "name": "INTELSAT 11 (IS-11)", "group": "intelsat", "lat": 3.020807931611315, "lon": -178.94372123714348, "alt_km": 36115.5834400494, "timestamp": "2025-12-09T14:52:25.833567+00:00", "meta": {"OBJECT_NAME": "INTELSAT 11 (IS-11)", "OBJECT_ID": "2007-044B", "EPOCH": "2025-12-09T07:22:39.919872", "MEAN_MOTION": 0.99047805, "ECCENTRICITY": 0.00091161, "INCLINATION": 3.0714, "RA_OF_ASC_NODE": 81.0127, "ARG_OF_PERICENTER": 164.4421, "MEAN_ANOMALY": 184.3079, "EPHEMERIS_TYPE": 0, "CLASSIFICATION_TYPE": "U", "NORAD_CAT_ID": 32253, "ELEMENT_SET_NO": 999, "REV_AT_EPOCH": 6656, "BSTAR": 0, "MEAN_MOTION_DOT": 7.2e-07, "MEAN_MOTION_DDOT": 0}, "tle": {"line1": "1 32253U 07044B   25343.30740648  .00000072  00000+0  00000+0 0  9996", "line2": "2 32253   3.0714  81.0127 0009116 164.4421 184.3079  0.99047805 66567"}}, "geometry": {"type": "Point", "coordinates": [-178.94372123714348, 3.020807931611315]}}, {"type": "Feature", "properties": {"norad_id": 32388, "name": "HORIZONS-2", "group": "intelsat", "lat": 1.1967968528305968, "lon": -132.08788892230226, "alt_km": 35770.44848051757, "timestamp": "2025-12-09T14:52:25.833580+00:00", "meta": {"OBJECT_NAME": "HORIZONS-2", "OBJECT_ID": "2007-063B", "EPOCH": "2025-12-09T06:15:21.405024", "MEAN_MOTION": 1.00270552, "ECCENTRICITY": 0.00050311, "INCLINATION": 2.1125, "RA_OF_ASC_NODE": 82.9957, "ARG_OF_PERICENTER": 186.8656, "MEAN_ANOMALY": 188.4505, "EPHEMERIS_TYPE": 0, "CLASSIFICATION_TYPE": "U", "NORAD_CAT_ID": 32388, "ELEMENT_SET_NO": 999, "REV_AT_EPOCH": 6591, "BSTAR": 0, "MEAN_MOTION_DOT": -2.51e-06, "MEAN_MOTION_DDOT": 0}, "tle": {"line1": "1 32388U 07063B   25343.26066441 -.00000251  00000+0  00000+0 0  9993", "line2": "2 32388   2.1125  82.9957 0005031 186.8656 188.4505  1.00270552 65910"}}, "geometry": {"type": "Point", "coordinates": [-132.08788892230226, 1.1967968528305968]}}, {"type": "Feature", "properties": {"norad_id": 32729, "name": "DIRECTV 11", "group": "intelsat", "lat": -0.004913647744623942, "lon": -157.4751134309545, "alt_km": 35783.58578930011, "timestamp": "2025-12-09T14:52:25.833606+00:00", "meta": {"OBJECT_NAME": "DIRECTV 11", "OBJECT_ID": "2008-013A", "EPOCH": "2025-12-08T14:50:30.133248", "MEAN_MOTION": 1.00272882, "ECCENTRICITY": 5.266e-05, "INCLINATION": 0.0228, "RA_OF_ASC_NODE": 202.5194, "ARG_OF_PERICENTER": 2.0786, "MEAN_ANOMALY": 356.4573, "EPHEMERIS_TYPE": 0, "CLASSIFICATION_TYPE": "U", "NORAD_CAT_ID": 32729, "ELEMENT_SET_NO": 999, "REV_AT_EPOCH": 4368, "BSTAR": 0, "MEAN_MOTION_DOT": -1.24e-06, "MEAN_MOTION_DDOT": 0}, "tle": {"line1": "1 32729U 08013A   25342.61840432 -.00000124  00000+0  00000+0 0  9995", "line2": "2 32729   0.0228 202.5194 0000526   2.0786 356.4573  1.00272882 43680"}}, "geometry": {"type": "Point", "coordinates": [-157.4751134309545, -0.004913647744623942]}}, {"type": "Feature", "properties": {"norad_id": 32951, "name": "GALAXY 18 (G-18)", "group": "intelsat", "lat": -0.01781938098296834, "lon": 178.66744127015437, "alt_km": 35784.03082153325, "timestamp": "2025-12-09T14:52:25.833630+00:00", "meta": {"OBJECT_NAME": "GALAXY 18 (G-18)", "OBJECT_ID": "2008-024A", "EPOCH": "2025-12-09T06:48:26.885664", "MEAN_MOTION": 1.0027251, "ECCENTRICITY": 0.00031805, "INCLINATION": 0.0128, "RA_OF_ASC_NODE": 293.8067, "ARG_OF_PERICENTER": 327.0641, "MEAN_ANOMALY": 156.5084, "EPHEMERIS_TYPE": 0, "CLASSIFICATION_TYPE": "U", "NORAD_CAT_ID": 32951, "ELEMENT_SET_NO": 999, "REV_AT_EPOCH": 4394, "BSTAR": 0, "MEAN_MOTION_DOT": 2.7e-07, "MEAN_MOTION_DDOT": 0}, "tle": {"line1": "1 32951U 08024A   25343.28364451  .00000027  00000+0  00000+0 0  9991", "line2": "2 32951   0.0128 293.8067 0003180 327.0641 156.5084  1.00272510 43940"}}, "geometry": {"type": "Point", "coordinates": [178.66744127015437, -0.01781938098296834]}}]}